{"type": "FeatureCollection", "features": [ {"type": "Feature", "properties": {"norad_id": 33939, "name": "COSMOS 2251 DEB", "group": "cosmos-2251-debris", "lat": 4.983160262969154, "lon": -125.67038087777067, "alt_km": 569.864959484763, "timestamp": "2025-12-24T22:42:22.427191+00:00", "meta": {"OBJECT_NAME": "COSMOS 2251 DEB", "OBJECT_ID": "1993-036EU", "EPOCH": "2025-12-24T04:19:51.900384", "MEAN_MOTION": 15.00657533, "ECCENTRICITY": 0.00048908, "INCLINATION": 74.0056, "RA_OF_ASC_NODE": 57.3226, "ARG_OF_PERICENTER": 17.7737, "MEAN_ANOMALY": 342.362, "EPHEMERIS_TYPE": 0, "CLASSIFICATION_TYPE": "U", "NORAD_CAT_ID": 33939, "ELEMENT_SET_NO": 999, "REV_AT_EPOCH": 88924, "BSTAR": 0.0030723498, "MEAN_MOTION_DOT": 0.00039069, "MEAN_MOTION_DDOT": 0}, "tle": {"line1": "1 33939U 93036EU  25358.18046181  .00039069  00000+0  30723-2 0  9993", "line2": "2 33939  74.0056  57.3226 0004890  17.7737 342.3620 15.00657533889245"}}, "geometry": {"type": "Point", "coordinates": [-125.67038087777067, 4.983160262969154]}}, {"type": "Feature", "properties": {"norad_id": 33940, "name": "COSMOS 2251 DEB", "group": "cosmos-2251-debris", "lat": -68.18643076681893, "lon": 74.61129015952923, "alt_km": 702.8186951211073, "timestamp": "2025-12-24T22:42:22.427201+00:00", "meta": {"OBJECT_NAME": "COSMOS 2251 DEB", "OBJECT_ID": "1993-036EV", "EPOCH": "2025-12-24T02:27:58.373280", "MEAN_MOTION": 14.58899685, "ECCENTRICITY": 0.00107558, "INCLINATION": 74.0401, "RA_OF_ASC_NODE": 121.86, "ARG_OF_PERICENTER": 202.7995, "MEAN_ANOMALY": 334.7515, "EPHEMERIS_TYPE": 0, "CLASSIFICATION_TYPE": "U", "NORAD_CAT_ID": 33940, "ELEMENT_SET_NO": 999, "REV_AT_EPOCH": 88759, "BSTAR": 0.0011694439, "MEAN_MOTION_DOT": 5.458e-05, "MEAN_MOTION_DDOT": 0}, "tle": {"line1": "1 33940U 93036EV  25358.10275895  .00005458  00000+0  11694-2 0  9994", "line2": "2 33940  74.0401 121.8600 0010755 202.7995 334.7515 14.58899685887595"}}, "geometry": {"type": "Point", "coordinates": [74.61129015952923, -68.18643076681893]}}, {"type": "Feature", "properties": {"norad_id": 33942, "name": "COSMOS 2251 DEB", "group": "cosmos-2251-debris", "lat": -67.17868723387578, "lon": -150.5128616692251, "alt_km": 761.8227722406373, "timestamp": "2025-12-24T22:42:22.427211+00:00", "meta": {"OBJECT_NAME": "COSMOS 2251 DEB", "OBJECT_ID": "1993-036EX", "EPOCH": "2025-12-24T03:42:29.308032", "MEAN_MOTION": 14.38003572, "ECCENTRICITY": 0.00207823, "INCLINATION": 74.0363, "RA_OF_ASC_NODE": 253.807, "ARG_OF_PERICENTER": 335.0386, "MEAN_ANOMALY": 175.4395, "EPHEMERIS_TYPE": 0, "CLASSIFICATION_TYPE": "U", "NORAD_CAT_ID": 33942, "ELEMENT_SET_NO": 999, "REV_AT_EPOCH": 88298, "BSTAR": 0.0001913693, "MEAN_MOTION_DOT": 5.54e-06, "MEAN_MOTION_DDOT": 0}, "tle": {"line1": "1 33942U 93036EX  25358.15450588  .00000554  00000+0  19137-3 0  9998", "line2": "2 33942  74.0363 253.8070 0020782 335.0386 175.4395 14.38003572882980"}}, "geometry": {"type": "Point", "coordinates": [-150.5128616692251, -67.17868723387578]}}, {"type": "Feature", "properties": {"norad_id": 33944, "name": "COSMOS 2251 DEB", "group": "cosmos-2251-debris", "lat": 43.43481439052152, "lon": 90.74953354195159, "alt_km": 791.6798247746165, "timestamp": "2025-12-24T22:42:22.427222+00:00", "meta": {"OBJECT_NAME": "COSMOS 2251 DEB", "OBJECT_ID": "1993-036EZ", "EPOCH": "2025-12-24T02:05:55.294656", "MEAN_MOTION": 14.37368079, "ECCENTRICITY": 0.01126783, "INCLINATION": 74.0408, "RA_OF_ASC_NODE": 288.0487, "ARG_OF_PERICENTER": 24.7589, "MEAN_ANOMALY": 347.001, "EPHEMERIS_TYPE": 0, "CLASSIFICATION_TYPE": "U", "NORAD_CAT_ID": 33944, "ELEMENT_SET_NO": 999, "REV_AT_EPOCH": 88191, "BSTAR": 0.00034914808, "MEAN_MOTION_DOT": 1.095e-05, "MEAN_MOTION_DDOT": 0}, "tle": {"line1": "1 33944U 93036EZ  25358.08744554  .00001095  00000+0  34915-3 0  9993", "line2": "2 33944  74.0408 288.0487 0112678  24.7589 347.0010 14.37368079881915"}}, "geometry": {"type": "Point", "coordinates": [90.74953354195159, 43.43481439052152]}}, {"type": "Feature", "properties": {"norad_id": 33945, "name": "COSMOS 2251 DEB", "group": "cosmos-2251-debris", "lat": 14.075428391712265, "lon": 99.78421781908591, "alt_km": 791.8531676757102, "timestamp": "2025-12-24T22:42:22.427232+00:00", "meta": {"OBJECT_NAME": "COSMOS 2251 DEB", "OBJECT_ID": "1993-036FA", "EPOCH": "2025-12-24T05:12:11.535552", "MEAN_MOTION": 14.34609541, "ECCENTRICITY": 0.00224046, "INCLINATION": 74.0303, "RA_OF_ASC_NODE": 285.2372, "ARG_OF_PERICENTER": 8.525, "MEAN_ANOMALY": 351.6278, "EPHEMERIS_TYPE": 0, "CLASSIFICATION_TYPE": "U", "NORAD_CAT_ID": 33945, "ELEMENT_SET_NO": 999, "REV_AT_EPOCH": 88180, "BSTAR": 0.00013448794, "MEAN_MOTION_DOT": 3.55e-06, "MEAN_MOTION_DDOT": 0}, "tle": {"line1": "1 33945U 93036FA  25358.21680018  .00000355  00000+0  13449-3 0  9990", "line2": "2 33945  74.0303 285.2372 0022404   8.5250 351.6278 14.34609541881808"}}, "geometry": {"type": "Point", "coordinates": [99.78421781908591, 14.075428391712265]}}, {"type": "Feature", "properties": {"norad_id": 33948, "name": "COSMOS 2251 DEB", "group": "cosmos-2251-debris", "lat": 55.94754089475724, "lon": -52.202675284726105, "alt_km": 759.8925370593133, "timestamp": "2025-12-24T22:42:22.427242+00:00", "meta": {"OBJECT_NAME": "COSMOS 2251 DEB", "OBJECT_ID": "1993-036FD", "EPOCH": "2025-12-24T05:42:25.515648", "MEAN_MOTION": 14.35642307, "ECCENTRICITY": 0.00232329, "INCLINATION": 74.0361, "RA_OF_ASC_NODE": 284.0378, "ARG_OF_PERICENTER": 357.1386, "MEAN_ANOMALY": 2.9629, "EPHEMERIS_TYPE": 0, "CLASSIFICATION_TYPE": "U", "NORAD_CAT_ID": 33948, "ELEMENT_SET_NO": 999, "REV_AT_EPOCH": 88188, "BSTAR": 0.00019336079, "MEAN_MOTION_DOT": 5.33e-06, "MEAN_MOTION_DDOT": 0}, "tle": {"line1": "1 33948U 93036FD  25358.23779532  .00000533  00000+0  19336-3 0  9994", "line2": "2 33948  74.0361 284.0378 0023232 357.1386   2.9629 14.35642307881883"}}, "geometry": {"type": "Point", "coordinates": [-52.202675284726105, 55.94754089475724]}}, {"type": "Feature", "properties": {"norad_id": 33971, "name": "COSMOS 2251 DEB", "group": "cosmos-2251-debris", "lat": -50.14557277757504, "lon": -148.8958380674157, "alt_km": 753.3707162538731, "timestamp": "2025-12-24T22:42:22.427252+00:00", "meta": {"OBJECT_NAME": "COSMOS 2251 DEB", "OBJECT_ID": "1993-036FE", "EPOCH": "2025-12-23T22:00:29.198304", "MEAN_MOTION": 14.39743527, "ECCENTRICITY": 0.001897, "INCLINATION": 74.024, "RA_OF_ASC_NODE": 233.0761, "ARG_OF_PERICENTER": 331.7327, "MEAN_ANOMALY": 43.7373, "EPHEMERIS_TYPE": 0, "CLASSIFICATION_TYPE": "U", "NORAD_CAT_ID": 33971, "ELEMENT_SET_NO": 999, "REV_AT_EPOCH": 88300, "BSTAR": 0.00023591, "MEAN_MOTION_DOT": 7.14e-06, "MEAN_MOTION_DDOT": 0}, "tle": {"line1": "1 33971U 93036FE  25357.91700461  .00000714  00000+0  23591-3 0  9998", "line2": "2 33971  74.0240 233.0761 0018970 331.7327  43.7373 14.39743527883006"}}, "geometry": {"type": "Point", "coordinates": [-148.8958380674157, -50.14557277757504]}}, {"type": "Feature", "properties": {"norad_id": 33972, "name": "COSMOS 2251 DEB", "group": "cosmos-2251-debris", "lat": 73.47066562074467, "lon": -87.11439889675995, "alt_km": 808.0706658808986, "timestamp": "2025-12-24T22:42:22.427263+00:00", "meta": {"OBJECT_NAME": "COSMOS 2251 DEB", "OBJECT_ID": "1993-036FF", "EPOCH": "2025-12-22T11:54:25.691616", "MEAN_MOTION": 14.36292058, "ECCENTRICITY": 0.01238157, "INCLINATION": 73.9934, "RA_OF_ASC_NODE": 172.696, "ARG_OF_PERICENTER": 338.2339, "MEAN_ANOMALY": 51.7728, "EPHEMERIS_TYPE": 0, "CLASSIFICATION_TYPE": "U", "NORAD_CAT_ID": 33972, "ELEMENT_SET_NO": 999, "REV_AT_EPOCH": 87214, "BSTAR": 0.0012268858, "MEAN_MOTION_DOT": 3.888e-05, "MEAN_MOTION_DDOT": 0}, "tle": {"line1": "1 33972U 93036FF  25356.49613069  .00003888  00000+0  12269-2 0  9992", "line2": "2 33972  73.9934 172.6960 0123815 338.2339  51.7728 14.36292058872145"}}, "geometry": {"type": "Point", "coordinates": [-87.11439889675995, 73.47066562074467]}}, {"type": "Feature", "properties": {"norad_id": 33973, "name": "COSMOS 2251 DEB", "group": "cosmos-2251-debris", "lat": -60.091099723877235, "lon": -69.99429967979135, "alt_km": 714.4774942513395, "timestamp": "2025-12-24T22:42:22.427273+00:00", "meta": {"OBJECT_NAME": "COSMOS 2251 DEB", "OBJECT_ID": "1993-036FG", "EPOCH": "2025-12-24T05:05:43.571904", "MEAN_MOTION": 14.45402819, "ECCENTRICITY": 0.0047373, "INCLINATION": 74.0086, "RA_OF_ASC_NODE": 81.4725, "ARG_OF_PERICENTER": 257.7844, "MEAN_ANOMALY": 130.0039, "EPHEMERIS_TYPE": 0, "CLASSIFICATION_TYPE": "U", "NORAD_CAT_ID": 33973, "ELEMENT_SET_NO": 999, "REV_AT_EPOCH": 88766, "BSTAR": 0.00014786741, "MEAN_MOTION_DOT": 4.99e-06, "MEAN_MOTION_DDOT": 0}, "tle": {"line1": "1 33973U 93036FG  25358.21230986  .00000499  00000+0  14787-3 0  9991", "line2": "2 33973  74.0086  81.4725 0047373 257.7844 130.0039 14.45402819887669"}}, "geometry": {"type": "Point", "coordinates": [-69.99429967979135, -60.091099723877235]}}, {"type": "Feature", "properties": {"norad_id": 33975, "name": "COSMOS 2251 DEB", "group": "cosmos-2251-debris", "lat": 15.661026535097703, "lon": 67.67126283490578, "alt_km": 1030.8898193723562, "timestamp": "2025-12-24T22:42:22.427284+00:00", "meta": {"OBJECT_NAME": "COSMOS 2251 DEB", "OBJECT_ID": "1993-036FJ", "EPOCH": "2025-12-23T20:54:39.909600", "MEAN_MOTION": 14.0054587, "ECCENTRICITY": 0.0190902, "INCLINATION": 73.8016, "RA_OF_ASC_NODE": 64.8855, "ARG_OF_PERICENTER": 196.057, "MEAN_ANOMALY": 163.4462, "EPHEMERIS_TYPE": 0, "CLASSIFICATION_TYPE": "U", "NORAD_CAT_ID": 33975, "ELEMENT_SET_NO": 999, "REV_AT_EPOCH": 85985, "BSTAR": 0.00049848, "MEAN_MOTION_DOT": 8.42e-06, "MEAN_MOTION_DDOT": 0}, "tle": {"line1": "1 33975U 93036FJ  25357.87129525  .00000842  00000+0  49848-3 0  9998", "line2": "2 33975  73.8016  64.8855 0190902 196.0570 163.4462 14.00545870859854"}}, "geometry": {"type": "Point", "coordinates": [67.67126283490578, 15.661026535097703]}}]}